*******************************************************************************
JPL/HORIZONS                683 Lanzia (A909 OA)           2023-Sep-04 11:07:43
Rec #:     683 (+COV) Soln.date: 2023-Aug-24_12:18:32   # obs: 8672 (1909-2023)
 
IAU76/J2000 helio. ecliptic osc. elements (au, days, deg., period=Julian yrs):
 
  EPOCH=  2457174.5 ! 2015-Jun-01.00 (TDB)         Residual RMS= .26556
   EC= .0557585298378897   QR= 2.941927463080295   TP= 2458051.3481134255
   OM= 259.7283712522872   W=  283.4359012289324   IN= 18.50544841416407
   A= 3.115651616715389    MA= 202.8533560472034   ADIST= 3.289375770350484
   PER= 5.49961            N= .179217634           ANGMOM= .030316546
   DAN= 3.06624            DDN= 3.14673            L= 183.8682051
   B= -17.9813791          MOID= 1.99693           TP= 2017-Oct-24.8481134255
 
Asteroid physical parameters (km, seconds, rotational period in hours):
   GM= n.a.                RAD= 41.52              ROTPER= 8.63
   H= 8.89                 G= .150                 B-V= .689
                           ALBEDO= .053            STYP= n.a.

ASTEROID comments: 
1: soln ref.= JPL#102, OCC=0
2: source=ORB
*******************************************************************************


*******************************************************************************
Ephemeris / API_USER Mon Sep  4 11:07:43 2023 Pasadena, USA      / Horizons
*******************************************************************************
Target body name: 683 Lanzia (A909 OA)            {source: JPL#102}
Center body name: Solar System Barycenter (0)     {source: DE441}
Center-site name: BODY CENTER
*******************************************************************************
Start time      : A.D. 2023-Aug-12 00:00:00.0000 TDB
Stop  time      : A.D. 2023-Aug-13 00:00:00.0000 TDB
Step-size       : 2880 minutes
*******************************************************************************
Center geodetic : 0.0, 0.0, 0.0                   {E-lon(deg),Lat(deg),Alt(km)}
Center cylindric: 0.0, 0.0, 0.0                   {E-lon(deg),Dxy(km),Dz(km)}
Center radii    : (undefined)
Small perturbers: Yes                             {source: SB441-N16}
Output units    : KM-S
Calendar mode   : Mixed Julian/Gregorian
Output type     : GEOMETRIC cartesian states
Output format   : 2 (position and velocity)
Reference frame : Ecliptic of J2000.0
*******************************************************************************
Initial IAU76/J2000 heliocentric ecliptic osculating elements (au, days, deg.):
  EPOCH=  2457174.5 ! 2015-Jun-01.00 (TDB)         Residual RMS= .26556        
   EC= .0557585298378897   QR= 2.941927463080295   TP= 2458051.3481134255      
   OM= 259.7283712522872   W=  283.4359012289324   IN= 18.50544841416407       
  Equivalent ICRF heliocentric cartesian coordinates (au, au/d):
   X= 2.862720361457610E+00  Y= 8.877139298569741E-01  Z= 1.325194999545805E+00
  VX=-3.620253388988125E-03 VY= 8.329641401343379E-03 VZ= 1.768921772461207E-03
Asteroid physical parameters (km, seconds, rotational period in hours):        
   GM= n.a.                RAD= 41.52              ROTPER= 8.63                
   H= 8.89                 G= .150                 B-V= .689                   
                           ALBEDO= .053            STYP= n.a.                  
*******************************************************************************
JDTDB
   X     Y     Z
   VX    VY    VZ
*******************************************************************************
$$SOE
2460168.500000000 = A.D. 2023-Aug-12 00:00:00.0000 TDB 
 X =-3.813660204451239E+08 Y =-1.932731892414388E+08 Z =-1.136262152721449E+08
 VX= 6.763004154570095E+00 VY=-1.617004994293090E+01 VZ= 3.200413426443447E+00
$$EOE
*******************************************************************************
 
TIME

  Barycentric Dynamical Time ("TDB" or T_eph) output was requested. This
continuous coordinate time is equivalent to the relativistic proper time
of a clock at rest in a reference frame co-moving with the solar system
barycenter but outside the system's gravity well. It is the independent
variable in the solar system relativistic equations of motion.

  TDB runs at a uniform rate of one SI second per second and is independent
of irregularities in Earth's rotation.
 
CALENDAR SYSTEM

  Mixed calendar mode was active such that calendar dates after AD 1582-Oct-15
(if any) are in the modern Gregorian system. Dates prior to 1582-Oct-5 (if any)
are in the Julian calendar system, which is automatically extended for dates
prior to its adoption on 45-Jan-1 BC.  The Julian calendar is useful for
matching historical dates. The Gregorian calendar more accurately corresponds
to the Earth's orbital motion and seasons. A "Gregorian-only" calendar mode is
available if such physical events are the primary interest.

REFERENCE FRAME AND COORDINATES

  Ecliptic at the standard reference epoch

    Reference epoch: J2000.0
    X-Y plane: adopted Earth orbital plane at the reference epoch
               Note: IAU76 obliquity of 84381.448 arcseconds wrt ICRF X-Y plane
    X-axis   : ICRF
    Z-axis   : perpendicular to the X-Y plane in the directional (+ or -) sense
               of Earth's north pole at the reference epoch.

  Symbol meaning:

    JDTDB    Julian Day Number, Barycentric Dynamical Time
      X      X-component of position vector (km)
      Y      Y-component of position vector (km)
      Z      Z-component of position vector (km)
      VX     X-component of velocity vector (km/sec)                           
      VY     Y-component of velocity vector (km/sec)                           
      VZ     Z-component of velocity vector (km/sec)                           

ABERRATIONS AND CORRECTIONS

 Geometric state vectors have NO corrections or aberrations applied.

Computations by ...

    Solar System Dynamics Group, Horizons On-Line Ephemeris System
    4800 Oak Grove Drive, Jet Propulsion Laboratory
    Pasadena, CA  91109   USA

    General site: https://ssd.jpl.nasa.gov/
    Mailing list: https://ssd.jpl.nasa.gov/email_list.html
    System news : https://ssd.jpl.nasa.gov/horizons/news.html
    User Guide  : https://ssd.jpl.nasa.gov/horizons/manual.html
    Connect     : browser        https://ssd.jpl.nasa.gov/horizons/app.html#/x
                  API            https://ssd-api.jpl.nasa.gov/doc/horizons.html
                  command-line   telnet ssd.jpl.nasa.gov 6775
                  e-mail/batch   https://ssd.jpl.nasa.gov/ftp/ssd/hrzn_batch.txt
                  scripts        https://ssd.jpl.nasa.gov/ftp/ssd/SCRIPTS
    Author      : Jon.D.Giorgini@jpl.nasa.gov
*******************************************************************************
